HAWK-9B                 
1 59450U 24066J   26068.43130858  .00002608  00000+0  23214-3 0  9995
2 59450  45.6215  73.5456 0003751 229.3903 130.6652 14.98778240104864
STARLINK-34007          
1 63868U 25094E   26068.85516420 -.00011983  00000+0 -99610-3 0  9995
2 63868  70.0017 234.2102 0004582 277.8261  82.2378 14.98405216 47229
